{"type": "FeatureCollection", "features": [ {"type": "Feature", "properties": {"norad_id": 37928, "name": "FENGYUN 1C DEB", "group": "fengyun-1c-debris", "lat": 55.26888407064792, "lon": -142.21366882236643, "alt_km": 728.9171035954232, "timestamp": "2025-12-21T22:41:41.749642+00:00", "meta": {"OBJECT_NAME": "FENGYUN 1C DEB", "OBJECT_ID": "1999-025EPD", "EPOCH": "2025-12-21T09:04:11.551008", "MEAN_MOTION": 14.37132631, "ECCENTRICITY": 0.0073076, "INCLINATION": 98.9148, "RA_OF_ASC_NODE": 230.2847, "ARG_OF_PERICENTER": 7.9876, "MEAN_ANOMALY": 352.2454, "EPHEMERIS_TYPE": 0, "CLASSIFICATION_TYPE": "U", "NORAD_CAT_ID": 37928, "ELEMENT_SET_NO": 999, "REV_AT_EPOCH": 81316, "BSTAR": 0.00050775945, "MEAN_MOTION_DOT": 1.508e-05, "MEAN_MOTION_DDOT": 0}, "tle": {"line1": "1 37928U 99025EPD 25355.37791147  .00001508  00000+0  50776-3 0  9994", "line2": "2 37928  98.9148 230.2847 0073076   7.9876 352.2454 14.37132631813161"}}, "geometry": {"type": "Point", "coordinates": [-142.21366882236643, 55.26888407064792]}}, {"type": "Feature", "properties": {"norad_id": 38116, "name": "FENGYUN 1C DEB", "group": "fengyun-1c-debris", "lat": 48.79153373924284, "lon": -135.42333693029278, "alt_km": 779.4019593248922, "timestamp": "2025-12-21T22:41:41.749653+00:00", "meta": {"OBJECT_NAME": "FENGYUN 1C DEB", "OBJECT_ID": "1999-025EPM", "EPOCH": "2025-12-21T08:35:05.821728", "MEAN_MOTION": 14.17033054, "ECCENTRICITY": 0.00724673, "INCLINATION": 98.7117, "RA_OF_ASC_NODE": 33.9167, "ARG_OF_PERICENTER": 122.4097, "MEAN_ANOMALY": 250.3573, "EPHEMERIS_TYPE": 0, "CLASSIFICATION_TYPE": "U", "NORAD_CAT_ID": 38116, "ELEMENT_SET_NO": 999, "REV_AT_EPOCH": 64607, "BSTAR": 0.00039691226, "MEAN_MOTION_DOT": 7.76e-06, "MEAN_MOTION_DDOT": 0}, "tle": {"line1": "1 38116U 99025EPM 25355.35770627  .00000776  00000+0  39691-3 0  9991", "line2": "2 38116  98.7117  33.9167 0072467 122.4097 250.3573 14.17033054646070"}}, "geometry": {"type": "Point", "coordinates": [-135.42333693029278, 48.79153373924284]}}, {"type": "Feature", "properties": {"norad_id": 38121, "name": "FENGYUN 1C DEB", "group": "fengyun-1c-debris", "lat": -23.606333045565975, "lon": -36.29587823282892, "alt_km": 853.3288645192688, "timestamp": "2025-12-21T22:41:41.749662+00:00", "meta": {"OBJECT_NAME": "FENGYUN 1C DEB", "OBJECT_ID": "1999-025EPS", "EPOCH": "2025-12-13T04:20:01.430304", "MEAN_MOTION": 14.21784212, "ECCENTRICITY": 0.02064826, "INCLINATION": 99.1148, "RA_OF_ASC_NODE": 138.6695, "ARG_OF_PERICENTER": 126.4735, "MEAN_ANOMALY": 235.5664, "EPHEMERIS_TYPE": 0, "CLASSIFICATION_TYPE": "U", "NORAD_CAT_ID": 38121, "ELEMENT_SET_NO": 999, "REV_AT_EPOCH": 83926, "BSTAR": 0.0016630973, "MEAN_MOTION_DOT": 4.5e-05, "MEAN_MOTION_DDOT": 0}, "tle": {"line1": "1 38121U 99025EPS 25347.18057211  .00004500  00000+0  16631-2 0  9993", "line2": "2 38121  99.1148 138.6695 0206482 126.4735 235.5664 14.21784212839268"}}, "geometry": {"type": "Point", "coordinates": [-36.29587823282892, -23.606333045565975]}}, {"type": "Feature", "properties": {"norad_id": 38122, "name": "FENGYUN 1C DEB", "group": "fengyun-1c-debris", "lat": 72.88338307145142, "lon": -153.47939577127707, "alt_km": 593.598325774994, "timestamp": "2025-12-21T22:41:41.749672+00:00", "meta": {"OBJECT_NAME": "FENGYUN 1C DEB", "OBJECT_ID": "1999-025EPT", "EPOCH": "2025-12-20T11:15:30.693600", "MEAN_MOTION": 14.42669791, "ECCENTRICITY": 0.02281626, "INCLINATION": 98.3168, "RA_OF_ASC_NODE": 356.7199, "ARG_OF_PERICENTER": 133.5612, "MEAN_ANOMALY": 228.4777, "EPHEMERIS_TYPE": 0, "CLASSIFICATION_TYPE": "U", "NORAD_CAT_ID": 38122, "ELEMENT_SET_NO": 999, "REV_AT_EPOCH": 67850, "BSTAR": 0.00022815826, "MEAN_MOTION_DOT": 9.88e-06, "MEAN_MOTION_DDOT": 0}, "tle": {"line1": "1 38122U 99025EPT 25354.46910525  .00000988  00000+0  22816-3 0  9998", "line2": "2 38122  98.3168 356.7199 0228162 133.5612 228.4777 14.42669791678507"}}, "geometry": {"type": "Point", "coordinates": [-153.47939577127707, 72.88338307145142]}}, {"type": "Feature", "properties": {"norad_id": 38124, "name": "FENGYUN 1C DEB", "group": "fengyun-1c-debris", "lat": -82.1818008824168, "lon": 38.23541861912554, "alt_km": 852.9814657838215, "timestamp": "2025-12-21T22:41:41.749682+00:00", "meta": {"OBJECT_NAME": "FENGYUN 1C DEB", "OBJECT_ID": "1999-025EPV", "EPOCH": "2025-12-20T14:53:13.924320", "MEAN_MOTION": 13.40937676, "ECCENTRICITY": 0.035542, "INCLINATION": 97.8099, "RA_OF_ASC_NODE": 305.4265, "ARG_OF_PERICENTER": 285.6733, "MEAN_ANOMALY": 70.5462, "EPHEMERIS_TYPE": 0, "CLASSIFICATION_TYPE": "U", "NORAD_CAT_ID": 38124, "ELEMENT_SET_NO": 999, "REV_AT_EPOCH": 54687, "BSTAR": 0.00016826, "MEAN_MOTION_DOT": 1.02e-06, "MEAN_MOTION_DDOT": 0}, "tle": {"line1": "1 38124U 99025EPV 25354.62030005  .00000102  00000+0  16826-3 0  9996", "line2": "2 38124  97.8099 305.4265 0355420 285.6733  70.5462 13.40937676546870"}}, "geometry": {"type": "Point", "coordinates": [38.23541861912554, -82.1818008824168]}}, {"type": "Feature", "properties": {"norad_id": 38130, "name": "FENGYUN 1C DEB", "group": "fengyun-1c-debris", "lat": 81.12354471312564, "lon": -57.432696951284825, "alt_km": 1010.3157361487547, "timestamp": "2025-12-21T22:41:41.749692+00:00", "meta": {"OBJECT_NAME": "FENGYUN 1C DEB", "OBJECT_ID": "1999-025EQB", "EPOCH": "2025-11-28T09:19:02.490528", "MEAN_MOTION": 13.7720595, "ECCENTRICITY": 0.02085156, "INCLINATION": 98.6035, "RA_OF_ASC_NODE": 25.4413, "ARG_OF_PERICENTER": 263.5047, "MEAN_ANOMALY": 94.2329, "EPHEMERIS_TYPE": 0, "CLASSIFICATION_TYPE": "U", "NORAD_CAT_ID": 38130, "ELEMENT_SET_NO": 999, "REV_AT_EPOCH": 69085, "BSTAR": 0.0016964005, "MEAN_MOTION_DOT": 1.933e-05, "MEAN_MOTION_DDOT": 0}, "tle": {"line1": "1 38130U 99025EQB 25332.38822327  .00001933  00000+0  16964-2 0  9993", "line2": "2 38130  98.6035  25.4413 0208515 263.5047  94.2329 13.77205950690851"}}, "geometry": {"type": "Point", "coordinates": [-57.432696951284825, 81.12354471312564]}}, {"type": "Feature", "properties": {"norad_id": 38135, "name": "FENGYUN 1C DEB", "group": "fengyun-1c-debris", "lat": -72.22025199546808, "lon": -155.75595206800554, "alt_km": 952.8342199940698, "timestamp": "2025-12-21T22:41:41.749702+00:00", "meta": {"OBJECT_NAME": "FENGYUN 1C DEB", "OBJECT_ID": "1999-025EQG", "EPOCH": "2025-12-20T10:07:36.417792", "MEAN_MOTION": 14.25297349, "ECCENTRICITY": 0.02226674, "INCLINATION": 98.6595, "RA_OF_ASC_NODE": 51.1134, "ARG_OF_PERICENTER": 49.0857, "MEAN_ANOMALY": 312.9371, "EPHEMERIS_TYPE": 0, "CLASSIFICATION_TYPE": "U", "NORAD_CAT_ID": 38135, "ELEMENT_SET_NO": 999, "REV_AT_EPOCH": 61150, "BSTAR": 0.00027123211, "MEAN_MOTION_DOT": 7.8e-06, "MEAN_MOTION_DDOT": 0}, "tle": {"line1": "1 38135U 99025EQG 25354.42194928  .00000780  00000+0  27123-3 0  9995", "line2": "2 38135  98.6595  51.1134 0222667  49.0857 312.9371 14.25297349611502"}}, "geometry": {"type": "Point", "coordinates": [-155.75595206800554, -72.22025199546808]}}, {"type": "Feature", "properties": {"norad_id": 38137, "name": "FENGYUN 1C DEB", "group": "fengyun-1c-debris", "lat": -32.76783918050368, "lon": 44.26188506728153, "alt_km": 870.6478460638491, "timestamp": "2025-12-21T22:41:41.749712+00:00", "meta": {"OBJECT_NAME": "FENGYUN 1C DEB", "OBJECT_ID": "1999-025EQJ", "EPOCH": "2025-12-11T22:03:53.453088", "MEAN_MOTION": 14.06158007, "ECCENTRICITY": 0.0046494, "INCLINATION": 98.8649, "RA_OF_ASC_NODE": 28.6821, "ARG_OF_PERICENTER": 71.683, "MEAN_ANOMALY": 288.9388, "EPHEMERIS_TYPE": 0, "CLASSIFICATION_TYPE": "U", "NORAD_CAT_ID": 38137, "ELEMENT_SET_NO": 999, "REV_AT_EPOCH": 63697, "BSTAR": 0.00049172, "MEAN_MOTION_DOT": 7.73e-06, "MEAN_MOTION_DDOT": 0}, "tle": {"line1": "1 38137U 99025EQJ 25345.91936867  .00000773  00000+0  49172-3 0  9997", "line2": "2 38137  98.8649  28.6821 0046494  71.6830 288.9388 14.06158007636976"}}, "geometry": {"type": "Point", "coordinates": [44.26188506728153, -32.76783918050368]}}, {"type": "Feature", "properties": {"norad_id": 38143, "name": "FENGYUN 1C DEB", "group": "fengyun-1c-debris", "lat": 52.04359476946729, "lon": 40.05046833925437, "alt_km": 904.0607473181344, "timestamp": "2025-12-21T22:41:41.749722+00:00", "meta": {"OBJECT_NAME": "FENGYUN 1C DEB", "OBJECT_ID": "1999-025EQQ", "EPOCH": "2025-12-17T09:02:58.047936", "MEAN_MOTION": 14.0490641, "ECCENTRICITY": 0.00563343, "INCLINATION": 99.0304, "RA_OF_ASC_NODE": 47.2681, "ARG_OF_PERICENTER": 207.7954, "MEAN_ANOMALY": 152.0199, "EPHEMERIS_TYPE": 0, "CLASSIFICATION_TYPE": "U", "NORAD_CAT_ID": 38143, "ELEMENT_SET_NO": 999, "REV_AT_EPOCH": 60348, "BSTAR": 0.00075665918, "MEAN_MOTION_DOT": 1.189e-05, "MEAN_MOTION_DDOT": 0}, "tle": {"line1": "1 38143U 99025EQQ 25351.37706074  .00001189  00000+0  75666-3 0  9995", "line2": "2 38143  99.0304  47.2681 0056334 207.7954 152.0199 14.04906410603486"}}, "geometry": {"type": "Point", "coordinates": [40.05046833925437, 52.04359476946729]}}, {"type": "Feature", "properties": {"norad_id": 38144, "name": "FENGYUN 1C DEB", "group": "fengyun-1c-debris", "lat": -25.55775396595703, "lon": -176.031322525051, "alt_km": 1253.4240930807218, "timestamp": "2025-12-21T22:41:41.749732+00:00", "meta": {"OBJECT_NAME": "FENGYUN 1C DEB", "OBJECT_ID": "1999-025EQR", "EPOCH": "2025-12-12T07:21:41.538528", "MEAN_MOTION": 13.59024242, "ECCENTRICITY": 0.02903277, "INCLINATION": 98.9688, "RA_OF_ASC_NODE": 170.8072, "ARG_OF_PERICENTER": 192.7812, "MEAN_ANOMALY": 166.5857, "EPHEMERIS_TYPE": 0, "CLASSIFICATION_TYPE": "U", "NORAD_CAT_ID": 38144, "ELEMENT_SET_NO": 999, "REV_AT_EPOCH": 61031, "BSTAR": 0.0024533733, "MEAN_MOTION_DOT": 2.337e-05, "MEAN_MOTION_DDOT": 0}, "tle": {"line1": "1 38144U 99025EQR 25346.30673077  .00002337  00000+0  24534-2 0  9992", "line2": "2 38144  98.9688 170.8072 0290327 192.7812 166.5857 13.59024242610319"}}, "geometry": {"type": "Point", "coordinates": [-176.031322525051, -25.55775396595703]}}]}